{"type": "FeatureCollection", "features": [ {"type": "Feature", "properties": {"norad_id": 34685, "name": "COSMOS 2251 DEB", "group": "cosmos-2251-debris", "lat": -25.708345248437112, "lon": -45.317140117285405, "alt_km": 697.0773605078712, "timestamp": "2025-12-24T07:45:06.593731+00:00", "meta": {"OBJECT_NAME": "COSMOS 2251 DEB", "OBJECT_ID": "1993-036YF", "EPOCH": "2025-12-23T19:59:34.351872", "MEAN_MOTION": 14.5760131, "ECCENTRICITY": 0.00142257, "INCLINATION": 74.0298, "RA_OF_ASC_NODE": 127.6894, "ARG_OF_PERICENTER": 232.707, "MEAN_ANOMALY": 284.1448, "EPHEMERIS_TYPE": 0, "CLASSIFICATION_TYPE": "U", "NORAD_CAT_ID": 34685, "ELEMENT_SET_NO": 999, "REV_AT_EPOCH": 88693, "BSTAR": 0.0011212399, "MEAN_MOTION_DOT": 5.089e-05, "MEAN_MOTION_DDOT": 0}, "tle": {"line1": "1 34685U 93036YF  25357.83303648  .00005089  00000+0  11212-2 0  9994", "line2": "2 34685  74.0298 127.6894 0014225 232.7070 284.1448 14.57601310886933"}}, "geometry": {"type": "Point", "coordinates": [-45.317140117285405, -25.708345248437112]}}, {"type": "Feature", "properties": {"norad_id": 34689, "name": "COSMOS 2251 DEB", "group": "cosmos-2251-debris", "lat": 1.522289251315091, "lon": -156.31395125230216, "alt_km": 883.3059180702949, "timestamp": "2025-12-24T07:45:06.593741+00:00", "meta": {"OBJECT_NAME": "COSMOS 2251 DEB", "OBJECT_ID": "1993-036YK", "EPOCH": "2025-12-15T15:20:16.539648", "MEAN_MOTION": 14.04491905, "ECCENTRICITY": 0.02275051, "INCLINATION": 74.0901, "RA_OF_ASC_NODE": 218.3502, "ARG_OF_PERICENTER": 286.6099, "MEAN_ANOMALY": 101.262, "EPHEMERIS_TYPE": 0, "CLASSIFICATION_TYPE": "U", "NORAD_CAT_ID": 34689, "ELEMENT_SET_NO": 999, "REV_AT_EPOCH": 84382, "BSTAR": 0.0020174062, "MEAN_MOTION_DOT": 4.031e-05, "MEAN_MOTION_DDOT": 0}, "tle": {"line1": "1 34689U 93036YK  25349.63908032  .00004031  00000+0  20174-2 0  9998", "line2": "2 34689  74.0901 218.3502 0227505 286.6099 101.2620 14.04491905843829"}}, "geometry": {"type": "Point", "coordinates": [-156.31395125230216, 1.522289251315091]}}, {"type": "Feature", "properties": {"norad_id": 34721, "name": "COSMOS 2251 DEB", "group": "cosmos-2251-debris", "lat": 65.22079020765766, "lon": -15.188013468922057, "alt_km": 1058.5496310818507, "timestamp": "2025-12-24T07:45:06.593751+00:00", "meta": {"OBJECT_NAME": "COSMOS 2251 DEB", "OBJECT_ID": "1993-036YP", "EPOCH": "2025-12-22T15:01:26.818176", "MEAN_MOTION": 13.9688922, "ECCENTRICITY": 0.02228953, "INCLINATION": 73.9232, "RA_OF_ASC_NODE": 309.0948, "ARG_OF_PERICENTER": 246.2436, "MEAN_ANOMALY": 294.4962, "EPHEMERIS_TYPE": 0, "CLASSIFICATION_TYPE": "U", "NORAD_CAT_ID": 34721, "ELEMENT_SET_NO": 999, "REV_AT_EPOCH": 85287, "BSTAR": 0.00096151387, "MEAN_MOTION_DOT": 1.625e-05, "MEAN_MOTION_DDOT": 0}, "tle": {"line1": "1 34721U 93036YP  25356.62600484  .00001625  00000+0  96151-3 0  9997", "line2": "2 34721  73.9232 309.0948 0222895 246.2436 294.4962 13.96889220852877"}}, "geometry": {"type": "Point", "coordinates": [-15.188013468922057, 65.22079020765766]}}, {"type": "Feature", "properties": {"norad_id": 34722, "name": "COSMOS 2251 DEB", "group": "cosmos-2251-debris", "lat": -23.154468855541584, "lon": 142.5160530310913, "alt_km": 758.1807445571476, "timestamp": "2025-12-24T07:45:06.593761+00:00", "meta": {"OBJECT_NAME": "COSMOS 2251 DEB", "OBJECT_ID": "1993-036YQ", "EPOCH": "2025-12-22T16:31:19.088832", "MEAN_MOTION": 14.11962361, "ECCENTRICITY": 0.01666176, "INCLINATION": 73.8732, "RA_OF_ASC_NODE": 318.3225, "ARG_OF_PERICENTER": 242.1428, "MEAN_ANOMALY": 297.5456, "EPHEMERIS_TYPE": 0, "CLASSIFICATION_TYPE": "U", "NORAD_CAT_ID": 34722, "ELEMENT_SET_NO": 999, "REV_AT_EPOCH": 86385, "BSTAR": 0.00060343393, "MEAN_MOTION_DOT": 1.231e-05, "MEAN_MOTION_DDOT": 0}, "tle": {"line1": "1 34722U 93036YQ  25356.68841538  .00001231  00000+0  60343-3 0  9998", "line2": "2 34722  73.8732 318.3225 0166617 242.1428 297.5456 14.11962361863856"}}, "geometry": {"type": "Point", "coordinates": [142.5160530310913, -23.154468855541584]}}, {"type": "Feature", "properties": {"norad_id": 34726, "name": "COSMOS 2251 DEB", "group": "cosmos-2251-debris", "lat": 50.740219713045, "lon": -15.260285700726655, "alt_km": 673.7788200600316, "timestamp": "2025-12-24T07:45:06.593772+00:00", "meta": {"OBJECT_NAME": "COSMOS 2251 DEB", "OBJECT_ID": "1993-036YU", "EPOCH": "2025-12-23T21:38:12.550560", "MEAN_MOTION": 14.59523713, "ECCENTRICITY": 0.00417158, "INCLINATION": 74.0282, "RA_OF_ASC_NODE": 325.0306, "ARG_OF_PERICENTER": 112.1946, "MEAN_ANOMALY": 248.3654, "EPHEMERIS_TYPE": 0, "CLASSIFICATION_TYPE": "U", "NORAD_CAT_ID": 34726, "ELEMENT_SET_NO": 999, "REV_AT_EPOCH": 88665, "BSTAR": 0.00041585242, "MEAN_MOTION_DOT": 1.969e-05, "MEAN_MOTION_DDOT": 0}, "tle": {"line1": "1 34726U 93036YU  25357.90153415  .00001969  00000+0  41585-3 0  9993", "line2": "2 34726  74.0282 325.0306 0041715 112.1946 248.3654 14.59523713886653"}}, "geometry": {"type": "Point", "coordinates": [-15.260285700726655, 50.740219713045]}}, {"type": "Feature", "properties": {"norad_id": 34728, "name": "COSMOS 2251 DEB", "group": "cosmos-2251-debris", "lat": 44.49090726374546, "lon": -114.38883933306916, "alt_km": 627.1621953847707, "timestamp": "2025-12-24T07:45:06.593782+00:00", "meta": {"OBJECT_NAME": "COSMOS 2251 DEB", "OBJECT_ID": "1993-036YW", "EPOCH": "2025-12-20T02:20:18.568032", "MEAN_MOTION": 14.70905998, "ECCENTRICITY": 0.00414013, "INCLINATION": 74.0163, "RA_OF_ASC_NODE": 237.4676, "ARG_OF_PERICENTER": 33.08, "MEAN_ANOMALY": 327.2947, "EPHEMERIS_TYPE": 0, "CLASSIFICATION_TYPE": "U", "NORAD_CAT_ID": 34728, "ELEMENT_SET_NO": 999, "REV_AT_EPOCH": 88908, "BSTAR": 0.00043281985, "MEAN_MOTION_DOT": 2.653e-05, "MEAN_MOTION_DDOT": 0}, "tle": {"line1": "1 34728U 93036YW  25354.09743713  .00002653  00000+0  43282-3 0  9995", "line2": "2 34728  74.0163 237.4676 0041401  33.0800 327.2947 14.70905998889085"}}, "geometry": {"type": "Point", "coordinates": [-114.38883933306916, 44.49090726374546]}}, {"type": "Feature", "properties": {"norad_id": 34729, "name": "COSMOS 2251 DEB", "group": "cosmos-2251-debris", "lat": -22.05842223249319, "lon": 162.15031267184526, "alt_km": 628.003878340347, "timestamp": "2025-12-24T07:45:06.593792+00:00", "meta": {"OBJECT_NAME": "COSMOS 2251 DEB", "OBJECT_ID": "1993-036YX", "EPOCH": "2025-12-23T02:14:49.264800", "MEAN_MOTION": 14.83074997, "ECCENTRICITY": 0.00119468, "INCLINATION": 74.0183, "RA_OF_ASC_NODE": 337.9163, "ARG_OF_PERICENTER": 91.0915, "MEAN_ANOMALY": 30.6504, "EPHEMERIS_TYPE": 0, "CLASSIFICATION_TYPE": "U", "NORAD_CAT_ID": 34729, "ELEMENT_SET_NO": 999, "REV_AT_EPOCH": 88611, "BSTAR": 0.0020599234, "MEAN_MOTION_DOT": 0.00016802, "MEAN_MOTION_DDOT": 0}, "tle": {"line1": "1 34729U 93036YX  25357.09362575  .00016802  00000+0  20599-2 0  9998", "line2": "2 34729  74.0183 337.9163 0011946  91.0915  30.6504 14.83074997886112"}}, "geometry": {"type": "Point", "coordinates": [162.15031267184526, -22.05842223249319]}}, {"type": "Feature", "properties": {"norad_id": 34732, "name": "COSMOS 2251 DEB", "group": "cosmos-2251-debris", "lat": 22.61929844975734, "lon": 78.38832543888948, "alt_km": 761.1070805084937, "timestamp": "2025-12-24T07:45:06.593802+00:00", "meta": {"OBJECT_NAME": "COSMOS 2251 DEB", "OBJECT_ID": "1993-036ZA", "EPOCH": "2025-12-22T16:32:23.959680", "MEAN_MOTION": 14.47311087, "ECCENTRICITY": 0.00401751, "INCLINATION": 74.0456, "RA_OF_ASC_NODE": 74.5946, "ARG_OF_PERICENTER": 223.757, "MEAN_ANOMALY": 290.4905, "EPHEMERIS_TYPE": 0, "CLASSIFICATION_TYPE": "U", "NORAD_CAT_ID": 34732, "ELEMENT_SET_NO": 999, "REV_AT_EPOCH": 88287, "BSTAR": 0.00012395205, "MEAN_MOTION_DOT": 4.3e-06, "MEAN_MOTION_DDOT": 0}, "tle": {"line1": "1 34732U 93036ZA  25356.68916620  .00000430  00000+0  12395-3 0  9998", "line2": "2 34732  74.0456  74.5946 0040175 223.7570 290.4905 14.47311087882873"}}, "geometry": {"type": "Point", "coordinates": [78.38832543888948, 22.61929844975734]}}, {"type": "Feature", "properties": {"norad_id": 34736, "name": "COSMOS 2251 DEB", "group": "cosmos-2251-debris", "lat": -35.902290806949786, "lon": -157.35099311601363, "alt_km": 402.4687739877445, "timestamp": "2025-12-24T07:45:06.593812+00:00", "meta": {"OBJECT_NAME": "COSMOS 2251 DEB", "OBJECT_ID": "1993-036ZE", "EPOCH": "2025-12-23T10:46:56.086464", "MEAN_MOTION": 15.57195276, "ECCENTRICITY": 0.00122363, "INCLINATION": 73.9975, "RA_OF_ASC_NODE": 12.6001, "ARG_OF_PERICENTER": 337.9291, "MEAN_ANOMALY": 22.1397, "EPHEMERIS_TYPE": 0, "CLASSIFICATION_TYPE": "U", "NORAD_CAT_ID": 34736, "ELEMENT_SET_NO": 999, "REV_AT_EPOCH": 88614, "BSTAR": 0.008234701, "MEAN_MOTION_DOT": 0.00651397, "MEAN_MOTION_DDOT": 0}, "tle": {"line1": "1 34736U 93036ZE  25357.44926026  .00651397  00000+0  82347-2 0  9995", "line2": "2 34736  73.9975  12.6001 0012236 337.9291  22.1397 15.57195276886142"}}, "geometry": {"type": "Point", "coordinates": [-157.35099311601363, -35.902290806949786]}}, {"type": "Feature", "properties": {"norad_id": 34738, "name": "COSMOS 2251 DEB", "group": "cosmos-2251-debris", "lat": 14.358100281000972, "lon": 125.82488946304969, "alt_km": 749.3037443505827, "timestamp": "2025-12-24T07:45:06.593822+00:00", "meta": {"OBJECT_NAME": "COSMOS 2251 DEB", "OBJECT_ID": "1993-036ZG", "EPOCH": "2025-12-23T18:44:43.283328", "MEAN_MOTION": 14.4632643, "ECCENTRICITY": 0.00475663, "INCLINATION": 74.0156, "RA_OF_ASC_NODE": 122.6297, "ARG_OF_PERICENTER": 266.8783, "MEAN_ANOMALY": 167.0667, "EPHEMERIS_TYPE": 0, "CLASSIFICATION_TYPE": "U", "NORAD_CAT_ID": 34738, "ELEMENT_SET_NO": 999, "REV_AT_EPOCH": 88018, "BSTAR": 0.00030074639, "MEAN_MOTION_DOT": 1.066e-05, "MEAN_MOTION_DDOT": 0}, "tle": {"line1": "1 34738U 93036ZG  25357.78105652  .00001066  00000+0  30075-3 0  9992", "line2": "2 34738  74.0156 122.6297 0047566 266.8783 167.0667 14.46326430880188"}}, "geometry": {"type": "Point", "coordinates": [125.82488946304969, 14.358100281000972]}}]}